OBJECT B                
1 51825U 22019B   24137.91250688  .00018914  00000+0  84928-3 0  9997
2 51825  97.4298 209.6505 0013791 354.8880   5.2213 15.21130140122473
